[
    {
        "Altitude(m)": 604234.5953222985,
        "Argument of Periapsis(deg)": 0.0,
        "Eccentricity": 0.0,
        "Inclination(deg)": 60.0,
        "Latitude(deg)": 14.117156454340257,
        "Longitude(deg)": -133.2726503317049,
        "Mean Anomaly(deg)": 163.63640000000004,
        "RAAN(deg)": 155.0,
        "Satellite Name": "Test1 692",
        "Satellite Number": 692,
        "Semi-Major Axis(m)": 6980739.136638005,
        "Time(s)": 0
    },
    {
        "Altitude(m)": 604223.4243014151,
        "Argument of Periapsis(deg)": 0.00010418945913296404,
        "Eccentricity": 0.0,
        "Inclination(deg)": 60.0,
        "Latitude(deg)": 13.582292369892263,
        "Longitude(deg)": -132.98574213016295,
        "Mean Anomaly(deg)": 164.25650614546183,
        "RAAN(deg)": 154.99957995086027,
        "Satellite Name": "Test1 692",
        "Satellite Number": 692,
        "Semi-Major Axis(m)": 6980739.136638005,
        "Time(s)": 10
    }
]